norad_id,name,regime,epoch,line1,line2,inclination,eccentricity,mean_motion,raan,arg_pericenter,mean_anomaly
65486,SHIYAN 29,IGO,25286.84404065,1 65486U 25196A   25286.84404065 -.00000280  00000-0  00000-0 0  2147,2 65486  28.5524  21.6388 0010704 177.9188 222.0659  1.00274059   417,28.5524,0.0010704,1.00274059,21.6388,177.9188,222.0659
65486,SHIYAN 29,IGO,25287.20129866,1 65486U 25196A   25287.20129866 -.00000280  00000-0  00000-0 0  2174,2 65486  28.5528  21.6343 0010679 177.9371 351.0174  1.00273992   417,28.5528,0.0010679,1.00273992,21.6343,177.9371,351.0174
65486,SHIYAN 29,IGO,25287.76362800,1 65486U 25196A   25287.76362800 -.00000280  00000-0  00000-0 0  2228,2 65486  28.5535  21.6273 0010621 178.0595 193.8945  1.00273916   429,28.5535,0.0010621,1.00273916,21.6273,178.0595,193.8945
65486,SHIYAN 29,IGO,25288.64419167,1 65486U 25196A   25288.64419167 -.00000279  00000-0  00000-0 0  2256,2 65486  28.5544  21.6163 0010553 178.1188 151.7167  1.00273780   428,28.5544,0.0010553,1.0027378,21.6163,178.1188,151.7167
65486,SHIYAN 29,IGO,25288.73967330,1 65486U 25196A   25288.73967330 -.00000279  00000-0  00000+0 0  1175,2 65486  28.5545  21.6151 0010540 178.1320 186.1721  1.00273765   432,28.5545,0.001054,1.00273765,21.6151,178.132,186.1721
65486,SHIYAN 29,IGO,25288.82163807,1 65486U 25196A   25288.82163807 -.00000279  00000-0  00000-0 0  2286,2 65486  28.5546  21.6140 0010531 178.1403 215.7530  1.00273750   434,28.5546,0.0010531,1.0027375,21.614,178.1403,215.753
65486,SHIYAN 29,IGO,25289.20180715,1 65486U 25196A   25289.20180715 -.00000278  00000-0  00000+0 0  1193,2 65486  28.5550  21.6093 0010510 178.1353 352.9982  1.00273678   431,28.555,0.001051,1.00273678,21.6093,178.1353,352.9982
65486,SHIYAN 29,IGO,25289.64059101,1 65486U 25196A   25289.64059101 -.00000278  00000-0  00000-0 0  2355,2 65486  28.5555  21.6038 0010481 178.1237 151.4093  1.00273620   435,28.5555,0.0010481,1.0027362,21.6038,178.1237,151.4093
65486,SHIYAN 29,IGO,25289.84428336,1 65486U 25196A   25289.84428336 -.00000277  00000-0  00000-0 0  2389,2 65486  28.5557  21.6012 0010457 178.1188 224.9463  1.00273584   444,28.5557,0.0010457,1.00273584,21.6012,178.1188,224.9463
65486,SHIYAN 29,IGO,25290.19159146,1 65486U 25196A   25290.19159146 -.00000277  00000-0  00000-0 0  2390,2 65486  28.5560  21.5969 0010441 178.1081 350.3343  1.00273513   446,28.556,0.0010441,1.00273513,21.5969,178.1081,350.3343
65486,SHIYAN 29,IGO,25290.76664926,1 65486U 25196A   25290.76664926 -.00000276  00000-0  00000-0 0  2423,2 65486  28.5567  21.5897 0010407 178.0475 197.9884  1.00273420   454,28.5567,0.0010407,1.0027342,21.5897,178.0475,197.9884
65486,SHIYAN 29,IGO,25291.19101941,1 65486U 25196A   25291.19101941 -.00000275  00000-0  00000+0 0  1252,2 65486  28.5571  21.5843 0010385 178.0129 351.2192  1.00273329   456,28.5571,0.0010385,1.00273329,21.5843,178.0129,351.2192
65486,SHIYAN 29,IGO,25291.26677050,1 65486U 25196A   25291.26677050 -.00000275  00000-0  00000-0 0  2442,2 65486  28.5572  21.5834 0010385 178.0079  18.5700  1.00273313   452,28.5572,0.0010385,1.00273313,21.5834,178.0079,18.57
65486,SHIYAN 29,IGO,25291.74995477,1 65486U 25196A   25291.74995477 -.00000274  00000-0  00000+0 0  1279,2 65486  28.5577  21.5774 0010365 177.9286 193.0765  1.00273228   462,28.5577,0.0010365,1.00273228,21.5774,177.9286,193.0765
65486,SHIYAN 29,IGO,25291.93476765,1 65486U 25196A   25291.93476765 -.00000274  00000-0  00000-0 0  2502,2 65486  28.5579  21.5751 0010353 177.8867 259.8350  1.00273189   467,28.5579,0.0010353,1.00273189,21.5751,177.8867,259.835
65486,SHIYAN 29,IGO,25292.28855527,1 65486U 25196A   25292.28855527 -.00000274  00000-0  00000-0 0  2531,2 65486  28.5582  21.5706 0010346 177.8653  27.5721  1.00273106   467,28.5582,0.0010346,1.00273106,21.5706,177.8653,27.5721
65486,SHIYAN 29,IGO,25292.71750330,1 65486U 25196A   25292.71750330 -.00000273  00000-0  00000+0 0  1318,2 65486  28.5586  21.5652 0010340 177.7883 182.4970  1.00273020   461,28.5586,0.001034,1.0027302,21.5652,177.7883,182.497
65486,SHIYAN 29,IGO,25293.00269808,1 65486U 25196A   25293.00269808 -.00000272  00000-0  00000-0 0  2621,2 65486  28.5589  21.5617 0010327 177.7137 285.5254  1.00272954   478,28.5589,0.0010327,1.00272954,21.5617,177.7137,285.5254
65486,SHIYAN 29,IGO,25293.19987229,1 65486U 25196A   25293.19987229 -.00000272  00000-0  00000+0 0  1331,2 65486  28.5591  21.5592 0010323 177.6922 356.7258  1.00272903   479,28.5591,0.0010323,1.00272903,21.5592,177.6922,356.7258
65486,SHIYAN 29,IGO,25293.26705627,1 65486U 25196A   25293.26705627 -.00000272  00000-0  00000-0 0  2667,2 65486  28.5592  21.5584 0010324 177.6908  20.9803  1.00272887   473,28.5592,0.0010324,1.00272887,21.5584,177.6908,20.9803
65486,SHIYAN 29,IGO,25293.56384235,1 65486U 25196A   25293.56384235 -.00000271  00000-0  00000+0 0  1340,2 65486  28.5595  21.5546 0010328 177.6618 128.1473  1.00272823   470,28.5595,0.0010328,1.00272823,21.5546,177.6618,128.1473
65486,SHIYAN 29,IGO,25293.96519928,1 65486U 25196A   25293.96519928 -.00000271  00000-0  00000-0 0  2705,2 65486  28.5599  21.5497 0010321 177.5404 273.1559  1.00272723   480,28.5599,0.0010321,1.00272723,21.5497,177.5404,273.1559
65486,SHIYAN 29,IGO,25294.62549532,1 65486U 25196A   25294.62549532 -.00000269  00000-0  00000-0 0  2755,2 65486  28.5605  21.5414 0010327 177.4901 151.5687  1.00272550   483,28.5605,0.0010327,1.0027255,21.5414,177.4901,151.5687
65486,SHIYAN 29,IGO,25294.72314512,1 65486U 25196A   25294.72314512 -.00000269  00000-0  00000+0 0  1381,2 65486  28.5606  21.5401 0010329 177.4576 186.8521  1.00272524   490,28.5606,0.0010329,1.00272524,21.5401,177.4576,186.8521
65486,SHIYAN 29,IGO,25294.84343369,1 65486U 25196A   25294.84343369 -.00000269  00000-0  00000+0 0  1397,2 65486  28.5608  21.5387 0010330 177.4193 230.3136  1.00272492   493,28.5608,0.001033,1.00272492,21.5387,177.4193,230.3136
65486,SHIYAN 29,IGO,25294.91972284,1 65486U 25196A   25294.91972284 -.00000269  00000-0  00000-0 0  2807,2 65486  28.5608  21.5377 0010330 177.3941 257.8786  1.00272471   494,28.5608,0.001033,1.00272471,21.5377,177.3941,257.8786
65486,SHIYAN 29,IGO,25295.06839314,1 65486U 25196A   25295.06839314 -.00000269  00000-0  00000+0 0  1404,2 65486  28.5610  21.5358 0010330 177.3534 311.5882  1.00272426   499,28.561,0.001033,1.00272426,21.5358,177.3534,311.5882
65486,SHIYAN 29,IGO,25295.29368308,1 65486U 25196A   25295.29368308 -.00000268  00000-0  00000+0 0  1419,2 65486  28.5612  21.5330 0010329 177.3548  32.9148  1.00272358   497,28.5612,0.0010329,1.00272358,21.533,177.3548,32.9148
65486,SHIYAN 29,IGO,25295.29368309,1 65486U 25196A   25295.29368309 -.00000268  00000-0  00000-0 0  2827,2 65486  28.5612  21.5330 0010329 177.3548  32.9148  1.00272358   497,28.5612,0.0010329,1.00272358,21.533,177.3548,32.9148
65486,SHIYAN 29,IGO,25295.72509375,1 65486U 25196A   25295.72509375 -.00000268  00000-0  00000+0 0  1429,2 65486  28.5616  21.5276 0010346 177.3060 188.6996  1.00272242   502,28.5616,0.0010346,1.00272242,21.5276,177.306,188.6996
65486,SHIYAN 29,IGO,25295.81440615,1 65486U 25196A   25295.81440615 -.00000267  00000-0  00000-0 0  2881,2 65486  28.5617  21.5265 0010349 177.2854 220.9612  1.00272217   501,28.5617,0.0010349,1.00272217,21.5265,177.2854,220.9612
65486,SHIYAN 29,IGO,25296.50514573,1 65486U 25196A   25296.50514573 -.00000266  00000-0  00000-0 0  2905,2 65486  28.5624  21.5179 0010362 177.2211 110.3766  1.00272007   504,28.5624,0.0010362,1.00272007,21.5179,177.2211,110.3766
65486,SHIYAN 29,IGO,25296.67240742,1 65486U 25196A   25296.67240742 -.00000266  00000-0  00000+0 0  1444,2 65486  28.5626  21.5157 0010370 177.2370 170.7412  1.00271982   506,28.5626,0.001037,1.00271982,21.5157,177.237,170.7412
65486,SHIYAN 29,IGO,25296.86154088,1 65486U 25196A   25296.86154088 -.00000266  00000-0  00000-0 0  2950,2 65486  28.5628  21.5134 0010382 177.2074 239.0460  1.00271920   512,28.5628,0.0010382,1.0027192,21.5134,177.2074,239.046
65486,SHIYAN 29,IGO,25297.28390252,1 65486U 25196A   25297.28390252 -.00000265  00000-0  00000-0 0  2973,2 65486  28.5632  21.5081 0010392 177.1585  31.5634  1.00271773   519,28.5632,0.0010392,1.00271773,21.5081,177.1585,31.5634
65486,SHIYAN 29,IGO,25297.69798265,1 65486U 25196A   25297.69798265 -.00000264  00000-0  00000+0 0  1498,2 65486  28.5636  21.5029 0010412 177.1774 181.0234  1.00271639   516,28.5636,0.0010412,1.00271639,21.5029,177.1774,181.0234
65486,SHIYAN 29,IGO,25297.86023700,1 65486U 25196A   25297.86023700 -.00000264  00000-0  00000+0 0  1515,2 65486  28.5638  21.5009 0010425 177.1701 239.6027  1.00271581   527,28.5638,0.0010425,1.00271581,21.5009,177.1701,239.6027
65486,SHIYAN 29,IGO,25297.86023701,1 65486U 25196A   25297.86023701 -.00000264  00000-0  00000-0 0  3058,2 65486  28.5638  21.5009 0010425 177.1701 239.6027  1.00271581   527,28.5638,0.0010425,1.00271581,21.5009,177.1701,239.6027
65486,SHIYAN 29,IGO,25298.20115788,1 65486U 25196A   25298.20115788 -.00000263  00000-0  00000+0 0  1522,2 65486  28.5641  21.4966 0010441 177.1398   2.7017  1.00271452   527,28.5641,0.0010441,1.00271452,21.4966,177.1398,2.7017
65486,SHIYAN 29,IGO,25298.20115789,1 65486U 25196A   25298.20115789 -.00000263  00000-0  00000-0 0  3065,2 65486  28.5641  21.4966 0010441 177.1398   2.7017  1.00271452   527,28.5641,0.0010441,1.00271452,21.4966,177.1398,2.7017
65486,SHIYAN 29,IGO,25298.54798059,1 65486U 25196A   25298.54798059 -.00000263  00000-0  00000+0 0  1538,2 65486  28.5644  21.4923 0010450 177.1566 127.8841  1.00271334   523,28.5644,0.001045,1.00271334,21.4923,177.1566,127.8841
65486,SHIYAN 29,IGO,25298.70816251,1 65486U 25196A   25298.70816251 -.00000263  00000-0  00000+0 0  1542,2 65486  28.5646  21.4903 0010463 177.1666 185.6980  1.00271277   531,28.5646,0.0010463,1.00271277,21.4903,177.1666,185.698
65486,SHIYAN 29,IGO,25298.86073175,1 65486U 25196A   25298.86073175 -.00000262  00000-0  00000-0 0  3136,2 65486  28.5647  21.4884 0010478 177.1778 240.7624  1.00271219   534,28.5647,0.0010478,1.00271219,21.4884,177.1778,240.7624
